NORAD_CAT_ID,OBJECT_NAME,OBJECT_TYPE,EPOCH,MEAN_MOTION,ECCENTRICITY,INCLINATION,RA_OF_ASC_NODE,ARG_OF_PERICENTER,MEAN_ANOMALY,BSTAR,MEAN_MOTION_DOT,MEAN_MOTION_DDOT,TLE_LINE0,TLE_LINE1,TLE_LINE2,SEMIMAJOR_AXIS,PERIOD,APOGEE,PERIGEE,DECAYED
51816.0,STARLINK-3603,PAYLOAD,2023-03-12 11:10:23,15.08832572,0.0001642,53.2168,196.7935,92.9455,267.1725,0.00015097,2.115e-05,0.0,0 STARLINK-3603,1 51816U 22017BA  23071.46554752  .00002115  00000-0  15097-3 0  9998,2 51816  53.2168 196.7935 0001642  92.9455 267.1725 15.08832572 59213,6917.903,95.438,540.904,538.632,0.0
51816.0,STARLINK-3603,PAYLOAD,2023-03-12 12:45:46,15.0883747,0.0001614,53.2165,196.4949,90.459,269.6587,0.00014913,2.086e-05,0.0,0 STARLINK-3603,1 51816U 22017BA  23071.53178489  .00002086  00000-0  14913-3 0  9998,2 51816  53.2165 196.4949 0001614  90.4590 269.6587 15.08837470 59107,6917.888,95.438,540.87,538.637,0.0
51816.0,STARLINK-3603,PAYLOAD,2023-03-12 17:31:54,15.08851039,0.0001416,53.2158,195.6035,97.0414,263.0739,0.00029907,4.476e-05,0.0,0 STARLINK-3603,1 51816U 22017BA  23071.73049147  .00004476  00000-0  29907-3 0  9992,2 51816  53.2158 195.6035 0001416  97.0414 263.0739 15.08851039 59254,6917.847,95.437,540.691,538.732,0.0
51816.0,STARLINK-3603,PAYLOAD,2023-03-13 07:50:24,15.08833308,0.0001783,53.2163,192.9287,83.8458,276.2738,8.5454e-05,1.072e-05,0.0,0 STARLINK-3603,1 51816U 22017BA  23072.32667267  .00001072  00000-0  85454-4 0  9996,2 51816  53.2163 192.9287 0001783  83.8458 276.2738 15.08833308 59341,6917.901,95.438,540.999,538.532,0.0
51816.0,STARLINK-3603,PAYLOAD,2023-03-13 15:47:19,15.08843203,0.0001749,53.2161,191.4396,82.1606,277.9585,4.8668e-05,4.87e-06,0.0,0 STARLINK-3603,1 51816U 22017BA  23072.65786792  .00000487  00000-0  48668-4 0  9992,2 51816  53.2161 191.4396 0001749  82.1606 277.9585 15.08843203 59391,6917.871,95.437,540.946,538.526,0.0
51816.0,STARLINK-3603,PAYLOAD,2023-03-14 14:02:43,15.08842791,0.0001453,53.2172,187.2761,103.6813,256.4341,9.0236e-05,1.149e-05,0.0,0 STARLINK-3603,1 51816U 22017BA  23073.58522612  .00001149  00000-0  90236-4 0  9998,2 51816  53.2172 187.2761 0001453 103.6813 256.4341 15.08842791 59419,6917.872,95.437,540.742,538.732,0.0
51816.0,STARLINK-3603,PAYLOAD,2023-03-14 15:38:06,15.08845687,0.0001879,53.2163,186.9769,110.9119,249.2074,0.00011996,1.622e-05,0.0,0 STARLINK-3603,1 51816U 22017BA  23073.65146330  .00001622  00000-0  11996-3 0  9996,2 51816  53.2163 186.9769 0001879 110.9119 249.2074 15.08845687 59426,6917.863,95.437,541.028,538.428,0.0
51816.0,STARLINK-3603,PAYLOAD,2023-03-15 12:18:05,15.0885994,0.0001441,53.215,183.113,78.2815,281.8338,0.00021646,3.161e-05,0.0,0 STARLINK-3603,1 51816U 22017BA  23074.51256925  .00003161  00000-0  21646-3 0  9997,2 51816  53.2150 183.1130 0001441  78.2815 281.8338 15.08859940 59676,6917.819,95.436,540.681,538.688,0.0
51816.0,STARLINK-3603,PAYLOAD,2023-03-15 15:28:51,15.08865201,0.0001563,53.216,182.5165,103.0431,257.0736,0.00020289,2.945e-05,0.0,0 STARLINK-3603,1 51816U 22017BA  23074.64504308  .00002945  00000-0  20289-3 0  9993,2 51816  53.2160 182.5165 0001563 103.0431 257.0736 15.08865201 59577,6917.803,95.436,540.75,538.587,0.0
51816.0,STARLINK-3603,PAYLOAD,2023-03-16 10:33:31,15.08835091,0.0001435,53.2165,178.948,121.0201,239.0932,-6.8044e-05,-1.371e-05,0.0,0 STARLINK-3603,1 51816U 22017BA  23075.43994870 -.00001371  00000-0 -68044-4 0  9994,2 51816  53.2165 178.9480 0001435 121.0201 239.0932 15.08835091 59813,6917.895,95.438,540.753,538.768,0.0
51816.0,STARLINK-3603,PAYLOAD,2023-03-16 15:19:40,15.08838532,0.000165,53.2153,178.0544,129.9121,230.2017,-6.1638e-05,-1.269e-05,0.0,0 STARLINK-3603,1 51816U 22017BA  23075.63866588 -.00001269  00000-0 -61638-4 0  9998,2 51816  53.2153 178.0544 0001650 129.9121 230.2017 15.08838532 59729,6917.885,95.438,540.891,538.608,0.0
51816.0,STARLINK-3603,PAYLOAD,2023-03-17 13:35:06,15.08823976,9.39e-05,53.2173,173.8988,82.6565,277.4534,-0.00021728,-3.742e-05,0.0,0 STARLINK-3603,1 51816U 22017BA  23076.56604847 -.00003742  00000-0 -21728-3 0  9992,2 51816  53.2173 173.8988 0000939  82.6565 277.4534 15.08823976 59860,6917.929,95.439,540.444,539.145,0.0
51816.0,STARLINK-3603,PAYLOAD,2023-03-17 15:10:29,15.08825583,0.0001061,53.2175,173.6007,87.246,272.8654,-0.00020678,-3.576e-05,0.0,0 STARLINK-3603,1 51816U 22017BA  23076.63228665 -.00003576  00000-0 -20678-3 0  9998,2 51816  53.2175 173.6007 0001061  87.2460 272.8654 15.08825583 59996,6917.924,95.438,540.523,539.055,0.0
51816.0,STARLINK-3603,PAYLOAD,2023-03-17 23:07:24,15.08842354,8.29e-05,53.2152,172.1132,97.7322,262.3764,-0.00017283,-3.037e-05,0.0,0 STARLINK-3603,1 51816U 22017BA  23076.96347481 -.00003037  00000-0 -17283-3 0  9992,2 51816  53.2152 172.1132 0000829  97.7322 262.3764 15.08842354 60047,6917.873,95.437,540.312,539.165,0.0
51816.0,STARLINK-3603,PAYLOAD,2023-03-18 13:25:51,15.0885601,7.85e-05,53.216,169.4359,108.9178,251.19,0.00019246,2.778e-05,0.0,0 STARLINK-3603,1 51816U 22017BA  23077.55962019  .00002778  00000-0  19246-3 0  9998,2 51816  53.2160 169.4359 0000785 108.9178 251.1900 15.08856010 60133,6917.831,95.437,540.24,539.153,0.0
51816.0,STARLINK-3603,PAYLOAD,2023-03-19 10:05:53,15.08838174,0.0001043,53.2176,165.5723,76.505,283.6058,0.000222,3.247e-05,0.0,0 STARLINK-3603,1 51816U 22017BA  23078.42075601  .00003247  00000-0  22200-3 0  9993,2 51816  53.2176 165.5723 0001043  76.5050 283.6058 15.08838174 60268,6917.886,95.438,540.473,539.029,0.0
51816.0,STARLINK-3603,PAYLOAD,2023-03-19 13:16:39,15.08842548,0.0001297,53.2168,164.9769,69.614,290.4992,0.00024789,3.66e-05,0.0,0 STARLINK-3603,1 51816U 22017BA  23078.55323314  .00003660  00000-0  24789-3 0  9997,2 51816  53.2168 164.9769 0001297  69.6140 290.4992 15.08842548 60168,6917.873,95.437,540.635,538.84,0.0
51816.0,STARLINK-3603,PAYLOAD,2023-03-20 11:32:03,15.08851659,0.0001233,53.2165,160.8151,92.6688,267.4446,-9.7762e-05,-1.844e-05,0.0,0 STARLINK-3603,1 51816U 22017BA  23079.48059270 -.00001844  00000-0 -97762-4 0  9993,2 51816  53.2165 160.8151 0001233  92.6688 267.4446 15.08851659 60428,6917.845,95.437,540.563,538.857,0.0
51816.0,STARLINK-3603,PAYLOAD,2023-03-20 13:07:26,15.08853689,0.0001245,53.2166,160.5176,92.4334,267.68,-7.7939e-05,-1.529e-05,0.0,0 STARLINK-3603,1 51816U 22017BA  23079.54683031 -.00001529  00000-0 -77939-4 0  9992,2 51816  53.2166 160.5176 0001245  92.4334 267.6800 15.08853689 60311,6917.839,95.437,540.565,538.842,0.0
51816.0,STARLINK-3603,PAYLOAD,2023-03-21 05:01:18,15.08841629,0.0001472,53.2172,157.5426,82.7994,277.3166,-6.2858e-05,-1.288e-05,0.0,0 STARLINK-3603,1 51816U 22017BA  23080.20923640 -.00001288  00000-0 -62858-4 0  9996,2 51816  53.2172 157.5426 0001472  82.7994 277.3166 15.08841629 60536,6917.875,95.437,540.759,538.722,0.0
51816.0,STARLINK-3603,PAYLOAD,2023-03-21 11:22:50,15.08842518,0.0001411,53.217,156.3539,77.4945,282.6205,-3.1114e-05,-7.83e-06,0.0,0 STARLINK-3603,1 51816U 22017BA  23080.47419404 -.00000783  00000-0 -31114-4 0  9993,2 51816  53.2170 156.3539 0001411  77.4945 282.6205 15.08842518 60458,6917.873,95.437,540.714,538.762,0.0
51816.0,STARLINK-3603,PAYLOAD,2023-03-22 11:13:37,15.08841328,0.0001384,53.2163,151.8926,89.4928,270.6223,2.8644e-05,1.68e-06,0.0,0 STARLINK-3603,1 51816U 22017BA  23081.46779227  .00000168  00000-0  28644-4 0  9994,2 51816  53.2163 151.8926 0001384  89.4928 270.6223 15.08841328 60728,6917.876,95.437,540.699,538.784,0.0
51816.0,STARLINK-3603,PAYLOAD,2023-03-23 11:04:24,15.08848778,0.0001482,53.2163,147.4307,95.3102,264.8059,-2.5868e-05,-7e-06,0.0,0 STARLINK-3603,1 51816U 22017BA  23082.46138897 -.00000700  00000-0 -25868-4 0  9996,2 51816  53.2163 147.4307 0001482  95.3102 264.8059 15.08848778 60752,6917.854,95.437,540.744,538.693,0.0
51816.0,STARLINK-3603,PAYLOAD,2023-03-24 04:33:38,15.08833106,0.0001501,53.2173,144.161,89.6646,270.4518,0.00041453,6.314e-05,0.0,0 STARLINK-3603,1 51816U 22017BA  23083.19002916  .00006314  00000-0  41453-3 0  9991,2 51816  53.2173 144.1610 0001501  89.6646 270.4518 15.08833106 60982,6917.901,95.438,540.805,538.728,0.0
51816.0,STARLINK-3603,PAYLOAD,2023-03-24 09:19:45,15.08874638,0.0001507,53.2165,143.2664,100.2271,259.8891,0.00033904,5.117e-05,0.0,0 STARLINK-3603,1 51816U 22017BA  23083.38872244  .00005117  00000-0  33904-3 0  9993,2 51816  53.2165 143.2664 0001507 100.2271 259.8891 15.08874638 61017,6917.775,95.435,540.682,538.597,0.0
51816.0,STARLINK-3603,PAYLOAD,2023-03-24 20:27:28,15.08859132,0.0001454,53.2172,141.1883,83.3524,276.7633,0.00016746,2.38e-05,0.0,0 STARLINK-3603,1 51816U 22017BA  23083.85240975  .00002380  00000-0  16746-3 0  9999,2 51816  53.2172 141.1883 0001454  83.3524 276.7633 15.08859132 61089,6917.822,95.436,540.693,538.681,0.0
51816.0,STARLINK-3603,PAYLOAD,2023-03-25 04:24:26,15.08819279,0.0001141,53.2175,139.7013,93.4525,266.6598,-0.0001766,-3.096e-05,0.0,0 STARLINK-3603,1 51816U 22017BA  23084.18364382 -.00003096  00000-0 -17660-3 0  9998,2 51816  53.2175 139.7013 0001141  93.4525 266.6598 15.08819279 61138,6917.944,95.439,540.598,539.019,0.0
51816.0,STARLINK-3603,PAYLOAD,2023-03-25 10:45:59,15.08823352,0.0001242,53.2176,138.5122,99.0918,261.0215,-0.00013444,-2.426e-05,0.0,0 STARLINK-3603,1 51816U 22017BA  23084.44860213 -.00002426  00000-0 -13444-3 0  9993,2 51816  53.2176 138.5122 0001242  99.0918 261.0215 15.08823352 61173,6917.931,95.439,540.655,538.937,0.0
51816.0,STARLINK-3603,PAYLOAD,2023-03-25 20:18:17,15.08832318,0.0001221,53.2185,136.7288,91.0907,269.0225,-6.6997e-05,-1.354e-05,0.0,0 STARLINK-3603,1 51816U 22017BA  23084.84603683 -.00001354  00000-0 -66997-4 0  9994,2 51816  53.2185 136.7288 0001221  91.0907 269.0225 15.08832318 61118,6917.904,95.438,540.614,538.924,0.0
51816.0,STARLINK-3603,PAYLOAD,2023-03-26 04:15:13,15.08835556,0.0001033,53.2185,135.2409,94.7948,265.3162,-0.00022488,-3.864e-05,0.0,0 STARLINK-3603,1 51816U 22017BA  23085.17724156 -.00003864  00000-0 -22488-3 0  9994,2 51816  53.2185 135.2409 0001033  94.7948 265.3162 15.08835556 61287,6917.894,95.438,540.474,539.044,0.0
